{
  "type": "FeatureCollection",
  "features": [
    {
      "type": "Feature",
      "properties": {
        "norad_id": 40362,
        "name": "YAOGAN-26",
        "group": "resource",
        "lat": -79.86236938109508,
        "lon": 25.410161580306063,
        "alt_km": 459.49785080778565,
        "timestamp": "2025-12-06T14:35:36.784638+00:00",
        "meta_object_name": "YAOGAN-26",
        "meta_object_id": "2014-088A",
        "meta_epoch": "2025-12-06T07:09:00.110880",
        "meta_mean_motion": 15.38963066,
        "meta_eccentricity": 0.00069586,
        "meta_inclination": 97.0638,
        "meta_ra_of_asc_node": 341.2026,
        "meta_arg_of_pericenter": 47.7339,
        "meta_mean_anomaly": 312.4497,
        "meta_ephemeris_type": 0,
        "meta_classification_type": "U",
        "meta_norad_cat_id": 40362,
        "meta_element_set_no": 999,
        "meta_rev_at_epoch": 60795,
        "meta_bstar": 0.00079244781,
        "meta_mean_motion_dot": 0.0003059,
        "meta_mean_motion_ddot": 0,
        "tle_line1": "1 40362U 14088A   25340.29791795  .00030590  00000+0  79245-3 0  9995",
        "tle_line2": "2 40362  97.0638 341.2026 0006958  47.7339 312.4497 15.38963066607953"
      },
      "geometry": {
        "type": "Point",
        "coordinates": [
          25.410161580306063,
          -79.86236938109508
        ]
      }
    },
    {
      "type": "Feature",
      "properties": {
        "norad_id": 40376,
        "name": "SMAP",
        "group": "resource",
        "lat": 35.771282603367965,
        "lon": -20.490305826247642,
        "alt_km": 679.4384206163613,
        "timestamp": "2025-12-06T14:35:36.784649+00:00",
        "meta_object_name": "SMAP",
        "meta_object_id": "2015-003A",
        "meta_epoch": "2025-12-06T06:13:24.123936",
        "meta_mean_motion": 14.63332614,
        "meta_eccentricity": 0.00012104,
        "meta_inclination": 98.129,
        "meta_ra_of_asc_node": 345.0766,
        "meta_arg_of_pericenter": 87.5371,
        "meta_mean_anomaly": 272.597,
        "meta_ephemeris_type": 0,
        "meta_classification_type": "U",
        "meta_norad_cat_id": 40376,
        "meta_element_set_no": 999,
        "meta_rev_at_epoch": 57940,
        "meta_bstar": 0.00023153845,
        "meta_mean_motion_dot": 1.149e-05,
        "meta_mean_motion_ddot": 0,
        "tle_line1": "1 40376U 15003A   25340.25930699  .00001149  00000+0  23154-3 0  9998",
        "tle_line2": "2 40376  98.1290 345.0766 0001210  87.5371 272.5970 14.63332614579407"
      },
      "geometry": {
        "type": "Point",
        "coordinates": [
          -20.490305826247642,
          35.771282603367965
        ]
      }
    },
    {
      "type": "Feature",
      "properties": {
        "norad_id": 40536,
        "name": "KOMPSAT-3A",
        "group": "resource",
        "lat": 63.65388370435274,
        "lon": 150.42602158038775,
        "alt_km": 426.67032454537275,
        "timestamp": "2025-12-06T14:35:36.784659+00:00",
        "meta_object_name": "KOMPSAT-3A",
        "meta_object_id": "2015-014A",
        "meta_epoch": "2025-12-06T04:45:40.655808",
        "meta_mean_motion": 15.43594202,
        "meta_eccentricity": 0.00041795,
        "meta_inclination": 97.6782,
        "meta_ra_of_asc_node": 314.1853,
        "meta_arg_of_pericenter": 141.1887,
        "meta_mean_anomaly": 218.9661,
        "meta_ephemeris_type": 0,
        "meta_classification_type": "U",
        "meta_norad_cat_id": 40536,
        "meta_element_set_no": 999,
        "meta_rev_at_epoch": 59194,
        "meta_bstar": 0.00062858467,
        "meta_mean_motion_dot": 0.00028242,
        "meta_mean_motion_ddot": 0,
        "tle_line1": "1 40536U 15014A   25340.19838722  .00028242  00000+0  62858-3 0  9992",
        "tle_line2": "2 40536  97.6782 314.1853 0004179 141.1887 218.9661 15.43594202591941"
      },
      "geometry": {
        "type": "Point",
        "coordinates": [
          150.42602158038775,
          63.65388370435274
        ]
      }
    },
    {
      "type": "Feature",
      "properties": {
        "norad_id": 40697,
        "name": "SENTINEL-2A",
        "group": "resource",
        "lat": -77.78464260548341,
        "lon": -170.92418153582543,
        "alt_km": 797.0213522261265,
        "timestamp": "2025-12-06T14:35:36.784669+00:00",
        "meta_object_name": "SENTINEL-2A",
        "meta_object_id": "2015-028A",
        "meta_epoch": "2025-12-06T06:39:46.711008",
        "meta_mean_motion": 14.3082362,
        "meta_eccentricity": 0.00010345,
        "meta_inclination": 98.5701,
        "meta_ra_of_asc_node": 52.9025,
        "meta_arg_of_pericenter": 94.468,
        "meta_mean_anomaly": 265.6621,
        "meta_ephemeris_type": 0,
        "meta_classification_type": "U",
        "meta_norad_cat_id": 40697,
        "meta_element_set_no": 999,
        "meta_rev_at_epoch": 54614,
        "meta_bstar": 0.00014789752,
        "meta_mean_motion_dot": 3.44e-06,
        "meta_mean_motion_ddot": 0,
        "tle_line1": "1 40697U 15028A   25340.27762397  .00000344  00000+0  14790-3 0  9993",
        "tle_line2": "2 40697  98.5701  52.9025 0001034  94.4680 265.6621 14.30823620546147"
      },
      "geometry": {
        "type": "Point",
        "coordinates": [
          -170.92418153582543,
          -77.78464260548341
        ]
      }
    },
    {
      "type": "Feature",
      "properties": {
        "norad_id": 40701,
        "name": "GAOFEN-8",
        "group": "resource",
        "lat": 79.48117562068202,
        "lon": 25.153685881818184,
        "alt_km": 440.34228383701156,
        "timestamp": "2025-12-06T14:35:36.784680+00:00",
        "meta_object_name": "GAOFEN-8",
        "meta_object_id": "2015-030A",
        "meta_epoch": "2025-12-06T06:21:58.191840",
        "meta_mean_motion": 15.38225472,
        "meta_eccentricity": 0.00113064,
        "meta_inclination": 97.6908,
        "meta_ra_of_asc_node": 158.092,
        "meta_arg_of_pericenter": 160.7131,
        "meta_mean_anomaly": 199.4543,
        "meta_ephemeris_type": 0,
        "meta_classification_type": "U",
        "meta_norad_cat_id": 40701,
        "meta_element_set_no": 999,
        "meta_rev_at_epoch": 58171,
        "meta_bstar": 0.00079643888,
        "meta_mean_motion_dot": 0.00030046,
        "meta_mean_motion_ddot": 0,
        "tle_line1": "1 40701U 15030A   25340.26525685  .00030046  00000+0  79644-3 0  9999",
        "tle_line2": "2 40701  97.6908 158.0920 0011306 160.7131 199.4543 15.38225472581714"
      },
      "geometry": {
        "type": "Point",
        "coordinates": [
          25.153685881818184,
          79.48117562068202
        ]
      }
    },
    {
      "type": "Feature",
      "properties": {
        "norad_id": 40718,
        "name": "CARBONITE 1 (CBNT-1)",
        "group": "resource",
        "lat": 4.118109604306981,
        "lon": -17.523969018288714,
        "alt_km": 614.5118825791596,
        "timestamp": "2025-12-06T14:35:36.784689+00:00",
        "meta_object_name": "CARBONITE 1 (CBNT-1)",
        "meta_object_id": "2015-032D",
        "meta_epoch": "2025-12-06T05:42:16.445376",
        "meta_mean_motion": 14.82696669,
        "meta_eccentricity": 0.00139861,
        "meta_inclination": 97.6401,
        "meta_ra_of_asc_node": 161.5684,
        "meta_arg_of_pericenter": 203.2072,
        "meta_mean_anomaly": 156.8512,
        "meta_ephemeris_type": 0,
        "meta_classification_type": "U",
        "meta_norad_cat_id": 40718,
        "meta_element_set_no": 999,
        "meta_rev_at_epoch": 56074,
        "meta_bstar": 0.00053994413,
        "meta_mean_motion_dot": 4.314e-05,
        "meta_mean_motion_ddot": 0,
        "tle_line1": "1 40718U 15032D   25340.23769034  .00004314  00000+0  53994-3 0  9993",
        "tle_line2": "2 40718  97.6401 161.5684 0013986 203.2072 156.8512 14.82696669560740"
      },
      "geometry": {
        "type": "Point",
        "coordinates": [
          -17.523969018288714,
          4.118109604306981
        ]
      }
    },
    {
      "type": "Feature",
      "properties": {
        "norad_id": 40878,
        "name": "YAOGAN-27",
        "group": "resource",
        "lat": -51.90729773651283,
        "lon": -16.35154211260992,
        "alt_km": 1200.816286299313,
        "timestamp": "2025-12-06T14:35:36.784700+00:00",
        "meta_object_name": "YAOGAN-27",
        "meta_object_id": "2015-040A",
        "meta_epoch": "2025-12-06T05:44:23.405856",
        "meta_mean_motion": 13.16059916,
        "meta_eccentricity": 0.00076945,
        "meta_inclination": 100.1007,
        "meta_ra_of_asc_node": 330.1534,
        "meta_arg_of_pericenter": 302.7295,
        "meta_mean_anomaly": 57.3077,
        "meta_ephemeris_type": 0,
        "meta_classification_type": "U",
        "meta_norad_cat_id": 40878,
        "meta_element_set_no": 999,
        "meta_rev_at_epoch": 49228,
        "meta_bstar": 0.00015395942,
        "meta_mean_motion_dot": 1.6e-07,
        "meta_mean_motion_ddot": 0,
        "tle_line1": "1 40878U 15040A   25340.23915979  .00000016  00000+0  15396-3 0  9999",
        "tle_line2": "2 40878 100.1007 330.1534 0007694 302.7295  57.3077 13.16059916492286"
      },
      "geometry": {
        "type": "Point",
        "coordinates": [
          -16.35154211260992,
          -51.90729773651283
        ]
      }
    }
  ]
}